NORAD_CAT_ID,OBJECT_NAME,OBJECT_TYPE,EPOCH,MEAN_MOTION,ECCENTRICITY,INCLINATION,RA_OF_ASC_NODE,ARG_OF_PERICENTER,MEAN_ANOMALY,BSTAR,MEAN_MOTION_DOT,MEAN_MOTION_DDOT,TLE_LINE0,TLE_LINE1,TLE_LINE2,SEMIMAJOR_AXIS,PERIOD,APOGEE,PERIGEE,DECAYED
55929.0,STARLINK-5898,PAYLOAD,2024-01-17 14:51:13,14.98352824,0.000307,70.0002,116.209,272.6085,87.4722,0.00023408,2.703e-05,0.0,0 STARLINK-5898,1 55929U 23037R   24017.61890400  .00002703  00000-0  23408-3 0  9999,2 55929  70.0002 116.2090 0003070 272.6085  87.4722 14.98352824 46343,6950.122,96.106,574.121,569.854,0.0
55929.0,STARLINK-5898,PAYLOAD,2024-01-17 16:27:21,14.98351817,0.0002696,70.0016,116.0436,267.8806,92.2044,0.00023481,2.711e-05,0.0,0 STARLINK-5898,1 55929U 23037R   24017.68566351  .00002711  00000-0  23481-3 0  9991,2 55929  70.0016 116.0436 0002696 267.8806  92.2044 14.98351817 46353,6950.125,96.106,573.864,570.117,0.0
55929.0,STARLINK-5898,PAYLOAD,2024-01-18 11:41:01,14.98311007,0.00031,70.0006,114.0232,269.4325,90.6478,-0.00016144,-2.018e-05,0.0,0 STARLINK-5898,1 55929U 23037R   24018.48682069 -.00002018  00000-0 -16144-3 0  9995,2 55929  70.0006 114.0232 0003100 269.4325  90.6478 14.98311007 46810,6950.252,96.108,574.271,569.962,0.0
55929.0,STARLINK-5898,PAYLOAD,2024-01-18 13:17:09,14.98311214,0.0002627,70.0012,113.8546,257.267,102.8195,-0.00011295,-1.44e-05,0.0,0 STARLINK-5898,1 55929U 23037R   24018.55357944 -.00001440  00000-0 -11295-3 0  9994,2 55929  70.0012 113.8546 0002627 257.2670 102.8195 14.98311214 46488,6950.251,96.108,573.942,570.29,0.0
55929.0,STARLINK-5898,PAYLOAD,2024-01-18 16:29:25,14.98312107,0.000271,70.0015,113.518,261.9914,98.0938,-5.7007e-05,-7.73e-06,0.0,0 STARLINK-5898,1 55929U 23037R   24018.68709872 -.00000773  00000-0 -57007-4 0  9999,2 55929  70.0015 113.5180 0002710 261.9914  98.0938 14.98312107 46504,6950.248,96.108,573.997,570.23,0.0
55929.0,STARLINK-5898,PAYLOAD,2024-01-19 11:43:00,14.98336656,0.0002629,70.0013,111.4991,260.9162,99.17,-0.0001419,-1.786e-05,0.0,0 STARLINK-5898,1 55929U 23037R   24019.48820427 -.00001786  00000-0 -14190-3 0  9998,2 55929  70.0013 111.4991 0002629 260.9162  99.1700 14.98336656 46966,6950.172,96.107,573.865,570.21,0.0
55929.0,STARLINK-5898,PAYLOAD,2024-01-19 13:19:08,14.98344354,0.0002196,70.0013,111.3301,249.5976,110.4947,-0.00019924,-2.47e-05,0.0,0 STARLINK-5898,1 55929U 23037R   24019.55496028 -.00002470  00000-0 -19924-3 0  9993,2 55929  70.0013 111.3301 0002196 249.5976 110.4947 14.98344354 46633,6950.149,96.106,573.54,570.487,0.0
55929.0,STARLINK-5898,PAYLOAD,2024-01-19 14:55:16,14.98345434,0.0002894,70.0004,111.161,269.5866,90.4962,-8.2779e-05,-1.081e-05,0.0,0 STARLINK-5898,1 55929U 23037R   24019.62171580 -.00001081  00000-0 -82779-4 0  9990,2 55929  70.0004 111.1610 0002894 269.5866  90.4962 14.98345434 46981,6950.145,96.106,574.022,569.999,0.0
55929.0,STARLINK-5898,PAYLOAD,2024-01-20 11:45:02,14.98316427,0.0002486,70.002,108.976,247.355,112.7346,0.00022905,2.64e-05,0.0,0 STARLINK-5898,1 55929U 23037R   24020.48960766  .00002640  00000-0  22905-3 0  9992,2 55929  70.0020 108.9760 0002486 247.3550 112.7346 14.98316427 47110,6950.235,96.108,573.828,570.372,0.0
55929.0,STARLINK-5898,PAYLOAD,2024-01-20 14:57:18,14.98313268,0.0002634,70.0015,108.639,257.0017,103.0848,0.00017557,2.002e-05,0.0,0 STARLINK-5898,1 55929U 23037R   24020.62313222  .00002002  00000-0  17557-3 0  9996,2 55929  70.0015 108.6390 0002634 257.0017 103.0848 14.98313268 46794,6950.245,96.108,573.94,570.279,0.0
55929.0,STARLINK-5898,PAYLOAD,2024-01-20 16:33:26,14.98313893,0.000261,70.0016,108.4706,254.6457,105.4414,0.00017371,1.979e-05,0.0,0 STARLINK-5898,1 55929U 23037R   24020.68989233  .00001979  00000-0  17371-3 0  9999,2 55929  70.0016 108.4706 0002610 254.6457 105.4414 14.98313893 46800,6950.243,96.108,573.922,570.294,0.0
55929.0,STARLINK-5898,PAYLOAD,2024-01-21 06:58:38,14.98331033,0.0002572,70.0008,106.9536,260.318,99.7689,-1.032e-05,-2.16e-06,0.0,0 STARLINK-5898,1 55929U 23037R   24021.29072798 -.00000216  00000-0 -10320-4 0  9999,2 55929  70.0008 106.9536 0002572 260.3180  99.7689 14.98331033 46893,6950.19,96.107,573.842,570.267,0.0
55929.0,STARLINK-5898,PAYLOAD,2024-01-21 13:23:11,14.98329763,0.0002667,70.001,106.2812,258.5665,101.5195,1.6888e-05,1.09e-06,0.0,0 STARLINK-5898,1 55929U 23037R   24021.55776759  .00000109  00000-0  16888-4 0  9990,2 55929  70.0010 106.2812 0002667 258.5665 101.5195 14.98329763 47272,6950.194,96.107,573.912,570.205,0.0
55929.0,STARLINK-5898,PAYLOAD,2024-01-21 14:59:19,14.98331607,0.0002577,70.0006,106.1113,263.4263,96.6602,2.3148e-05,1.83e-06,0.0,0 STARLINK-5898,1 55929U 23037R   24021.62452621  .00000183  00000-0  23148-4 0  9996,2 55929  70.0006 106.1113 0002577 263.4263  96.6602 14.98331607 46949,6950.188,96.107,573.844,570.262,0.0
55929.0,STARLINK-5898,PAYLOAD,2024-01-22 07:00:39,14.98324342,0.0002684,70.0004,104.4277,256.5597,103.5263,6.5463e-05,6.88e-06,0.0,0 STARLINK-5898,1 55929U 23037R   24022.29212901  .00000688  00000-0  65463-4 0  9991,2 55929  70.0004 104.4277 0002684 256.5597 103.5263 14.98324342 47042,6950.21,96.107,573.941,570.21,0.0
55929.0,STARLINK-5898,PAYLOAD,2024-01-22 15:01:20,14.98328572,0.0002809,70.0004,103.5869,260.4103,99.6739,8.6709e-05,9.42e-06,0.0,0 STARLINK-5898,1 55929U 23037R   24022.62592668  .00000942  00000-0  86709-4 0  9998,2 55929  70.0004 103.5869 0002809 260.4103  99.6739 14.98328572 47430,6950.197,96.107,574.015,570.11,0.0
55929.0,STARLINK-5898,PAYLOAD,2024-01-23 07:02:40,14.98331633,0.0002965,70.0007,101.9042,273.2208,86.8612,6.3649e-05,6.67e-06,0.0,0 STARLINK-5898,1 55929U 23037R   24023.29352531  .00000667  00000-0  63649-4 0  9997,2 55929  70.0007 101.9042 0002965 273.2208  86.8612 14.98331633 47192,6950.188,96.107,574.114,569.992,0.0
55929.0,STARLINK-5898,PAYLOAD,2024-01-23 15:03:20,14.98335299,0.0002773,70.001,101.0627,268.0015,92.0826,8.1983e-05,8.85e-06,0.0,0 STARLINK-5898,1 55929U 23037R   24023.62732161  .00000885  00000-0  81983-4 0  9998,2 55929  70.0010 101.0627 0002773 268.0015  92.0826 14.98335299 47582,6950.177,96.107,573.969,570.114,0.0
55929.0,STARLINK-5898,PAYLOAD,2024-01-24 11:53:06,14.98323971,0.0002453,70.0017,98.8761,244.555,115.5355,-2.0221e-05,-3.34e-06,0.0,0 STARLINK-5898,1 55929U 23037R   24024.49521173 -.00000334  00000-0 -20221-4 0  9992,2 55929  70.0017  98.8761 0002453 244.5550 115.5355 14.98323971 47716,6950.212,96.107,573.781,570.372,0.0
55929.0,STARLINK-5898,PAYLOAD,2024-01-24 13:29:14,14.9832139,0.000254,70.0016,98.7079,252.3211,107.767,1.1768e-05,4.7e-07,0.0,0 STARLINK-5898,1 55929U 23037R   24024.56197293  .00000047  00000-0  11768-4 0  9997,2 55929  70.0016  98.7079 0002540 252.3211 107.7670 14.98321390 47383,6950.22,96.108,573.85,570.319,0.0
55929.0,STARLINK-5898,PAYLOAD,2024-01-24 15:05:22,14.98320038,0.0002521,70.0015,98.539,255.6381,104.4498,2.4121e-05,1.95e-06,0.0,0 STARLINK-5898,1 55929U 23037R   24024.62873400  .00000195  00000-0  24121-4 0  9996,2 55929  70.0015  98.5390 0002521 255.6381 104.4498 14.98320038 47390,6950.224,96.108,573.841,570.337,0.0
55929.0,STARLINK-5898,PAYLOAD,2024-01-25 11:55:06,14.98333644,0.0002564,70.001,96.3506,257.1691,102.9182,1.0401e-05,3.1e-07,0.0,0 STARLINK-5898,1 55929U 23037R   24025.49660497  .00000031  00000-0  10401-4 0  9997,2 55929  70.0010  96.3506 0002564 257.1691 102.9182 14.98333644 47860,6950.182,96.107,573.829,570.265,0.0
55929.0,STARLINK-5898,PAYLOAD,2024-01-25 13:31:14,14.98333458,0.0002564,70.001,96.1822,258.1361,101.9511,7.6157e-06,-2e-08,0.0,0 STARLINK-5898,1 55929U 23037R   24025.56336500 -.00000002  00000-0  76157-5 0  9990,2 55929  70.0010  96.1822 0002564 258.1361 101.9511 14.98333458 47536,6950.182,96.107,573.829,570.265,0.0
55929.0,STARLINK-5898,PAYLOAD,2024-01-25 15:07:22,14.98333184,0.0002565,70.0009,96.0136,261.1603,98.9265,4.3478e-06,-4.1e-07,0.0,0 STARLINK-5898,1 55929U 23037R   24025.63012530 -.00000041  00000-0  43478-5 0  9995,2 55929  70.0009  96.0136 0002565 261.1603  98.9265 14.98333184 47543,6950.183,96.107,573.831,570.265,0.0
55929.0,STARLINK-5898,PAYLOAD,2024-01-26 11:57:07,14.98332583,0.0002726,70.0002,93.8245,262.575,97.5099,0.00011245,1.249e-05,0.0,0 STARLINK-5898,1 55929U 23037R   24026.49800156  .00001249  00000-0  11245-3 0  9994,2 55929  70.0002  93.8245 0002726 262.5750  97.5099 14.98332583 48014,6950.185,96.107,573.945,570.155,0.0
55929.0,STARLINK-5898,PAYLOAD,2024-01-26 13:33:15,14.9833324,0.000272,70.0002,93.6563,262.4024,97.6826,0.0001169,1.302e-05,0.0,0 STARLINK-5898,1 55929U 23037R   24026.56476081  .00001302  00000-0  11690-3 0  9992,2 55929  70.0002  93.6563 0002720 262.4024  97.6826 14.98333240 47684,6950.183,96.107,573.938,570.157,0.0
55929.0,STARLINK-5898,PAYLOAD,2024-01-27 11:59:09,14.98325349,0.0002615,70.0006,91.3002,254.9315,105.1555,-6.0445e-05,-8.14e-06,0.0,0 STARLINK-5898,1 55929U 23037R   24027.49941057 -.00000814  00000-0 -60445-4 0  9997,2 55929  70.0006  91.3002 0002615 254.9315 105.1555 14.98325349 48162,6950.207,96.107,573.89,570.255,0.0
55929.0,STARLINK-5898,PAYLOAD,2024-01-27 13:35:17,14.98325896,0.0002612,70.0006,91.132,255.2802,104.8067,-5.4273e-05,-7.4e-06,0.0,0 STARLINK-5898,1 55929U 23037R   24027.56617019 -.00000740  00000-0 -54273-4 0  9993,2 55929  70.0006  91.1320 0002612 255.2802 104.8067 14.98325896 47839,6950.206,96.107,573.886,570.255,0.0
55929.0,STARLINK-5898,PAYLOAD,2024-01-28 12:01:15,14.98258212,0.000262,70.0015,88.7775,235.252,124.8392,-0.00080059,-9.614e-05,0.0,0 STARLINK-5898,1 55929U 23037R   24028.50087504 -.00009614  00000-0 -80059-3 0  9997,2 55929  70.0015  88.7775 0002620 235.2520 124.8392 14.98258212 48313,6950.415,96.112,574.101,570.459,0.0
55929.0,STARLINK-5898,PAYLOAD,2024-01-28 13:37:19,14.98321369,0.0002559,70.0012,88.6084,258.5466,101.5405,-8.1994e-05,-1.071e-05,0.0,0 STARLINK-5898,1 55929U 23037R   24028.56758134 -.00001071  00000-0 -81994-4 0  9996,2 55929  70.0012  88.6084 0002559 258.5466 101.5405 14.98321369 47983,6950.22,96.108,573.863,570.306,0.0
